ONEWEB-0647             
1 56079U 23043AK  23295.15398763  .00002022  00000+0  53352-2 0  9997
2 56079  87.8956  92.1544 0002455  83.7475 276.3935 13.15539313 29018
ONEWEB-0651             
1 56080U 23043AL  23294.92158725 -.00000071  00000+0 -22190-3 0  9996
2 56080  87.8953  92.1738 0002068  96.3563 263.7803 13.15547421 30183
ONEWEB-0718             
1 56081U 23043AM  23295.14553719  .00000078  00000+0  17402-3 0  9999
2 56081  87.8877  92.1424 0001045  97.3883 262.7366 13.15546385 29933
GSLV R/B                
1 56082U 23043AN  23294.83829519  .00044105  00000+0  81705-3 0  9995
2 56082  87.4105  68.0640 0019453 290.3917  69.5253 15.48610851 32324
ONEWEB-0561             
1 56710U 23068A   23295.02626148  .00001093  00000+0  21670-2 0  9998
2 56710  88.2872 101.8104 0003025  77.2216 282.9263 13.34305791 22064
ONEWEB-0668             
1 56711U 23068B   23295.11266430  .00003042  00000+0  41129-3 0  9991
2 56711  86.7201  77.0616 0016549  47.2728 312.9883 14.78634810 23683
ONEWEB-0676             
1 56712U 23068C   23295.12674201  .00003201  00000+0  43407-3 0  9990
2 56712  86.7160  76.9854 0016853  49.7098 310.5593 14.78516566 23684
ONEWEB-0677             
1 56713U 23068D   23295.01696026  .00000836  00000+0  16398-2 0  9997
2 56713  88.3204  99.7352 0002212  96.4877 263.6516 13.34755115 22246
